<?xml version="1.0" encoding="utf-8" ?>
<kml xmlns="http://www.opengis.net/kml/2.2">
<Document id="root_doc">
<Schema name="cobertura_la_punta" id="cobertura_la_punta">
	<SimpleField name="nro_registro" type="int"></SimpleField>
	<SimpleField name="ubicacion" type="string"></SimpleField>
</Schema>
<Folder><name>cobertura_la_punta</name>
  <Placemark id="cobertura_la_punta.1">
	<Style><LineStyle><color>ff0000ff</color></LineStyle><PolyStyle><fill>0</fill></PolyStyle></Style>
      <Polygon></Polygon>
  </Placemark>
  <Placemark id="cobertura_la_punta.2">
	<Style><LineStyle><color>ff0000ff</color></LineStyle><PolyStyle><fill>0</fill></PolyStyle></Style>
	<ExtendedData><SchemaData schemaUrl="#cobertura_la_punta">
		<SimpleData name="nro_registro">1</SimpleData>
		<SimpleData name="ubicacion">Medina y Tovar (BASE)</SimpleData>
	</SchemaData></ExtendedData>
      <Polygon><outerBoundaryIs><LinearRing><coordinates>-77.163372993617,-12.0745088709171 -77.1633825230001,-12.07459695244 -77.1634093293997,-12.0746815118201 -77.1634523826731,-12.0747592994807 -77.163510028314,-12.0748273260772 -77.163580051033,-12.0748829773768 -77.1636597598896,-12.074924114724 -77.163746091705,-12.0749491572283 -77.1638357287801,-12.0749571425184 -77.1639252263948,-12.0749477637254 -77.16401114519,-12.0749213812757 -77.1640901833422,-12.0748790090391 -77.1641593034527,-12.0748222753655 -77.1642158492743,-12.0747533605067 -77.1642576477893,-12.0746749128297 -77.1642830927163,-12.0745899470398 -77.1642912062371,-12.0745017283266 -77.1642816765709,-12.0744136468845 -77.1642548699537,-12.0743290876293 -77.1642118165611,-12.0742513001186 -77.1641541709175,-12.0741832736743 -77.1640841483129,-12.0741276225059 -77.1640044396703,-12.0740864852491 -77.1639181081357,-12.0740614427804 -77.1638284713659,-12.0740534574659 -77.1637389740341,-12.0740628361781 -77.1636530554565,-12.0740892185029 -77.1635740174236,-12.0741315905895 -77.1635048973157,-12.074188324111 -77.1634483513798,-12.0742572388385 -77.1634065526509,-12.0743356864252 -77.1633811074429,-12.0744206521795 -77.163372993617,-12.0745088709171</coordinates></LinearRing></outerBoundaryIs></Polygon>
  </Placemark>
  <Placemark id="cobertura_la_punta.3">
	<Style><LineStyle><color>ff0000ff</color></LineStyle><PolyStyle><fill>0</fill></PolyStyle></Style>
	<ExtendedData><SchemaData schemaUrl="#cobertura_la_punta">
		<SimpleData name="nro_registro">2</SimpleData>
		<SimpleData name="ubicacion">Tovar y Larco (POZUZO)</SimpleData>
	</SchemaData></ExtendedData>
      <Polygon><outerBoundaryIs><LinearRing><coordinates>-77.1611608944123,-12.073646467017 -77.1611704230048,-12.0737345487496 -77.1611972286134,-12.0738191084812 -77.1612402811262,-12.0738968966217 -77.1612979260659,-12.0739649238078 -77.16136794817,-12.0740205757844 -77.1614476565218,-12.0740617138696 -77.1615339879619,-12.0740867571449 -77.1616236248054,-12.0740947432092 -77.1617131223414,-12.0740853651638 -77.1617990412136,-12.0740589834064 -77.1618780795956,-12.0740166117803 -77.16194720008,-12.0739598786118 -77.162003746405,-12.0738909641334 -77.1620455455336,-12.0738125166973 -77.162070991161,-12.0737275509997 -77.1620791054419,-12.0736393322267 -77.1620695765665,-12.0735512505749 -77.1620427707401,-12.0734666909681 -77.1619997181081,-12.0733889029776 -77.1619420731657,-12.0733208759436 -77.1618720511759,-12.0732652240983 -77.1617923430379,-12.0732240861033 -77.1617060118788,-12.0731990428638 -77.1616163753404,-12.0731910567751 -77.1615268780874,-12.0732004347397 -77.1614409594328,-12.0732268163722 -77.1613619211701,-12.0732691878485 -77.1612928006884,-12.0733259208648 -77.1612362542491,-12.073394835212 -77.1611944549066,-12.0734732825577 -77.1611690089984,-12.0735582482196 -77.1611608944123,-12.073646467017</coordinates></LinearRing></outerBoundaryIs></Polygon>
  </Placemark>
  <Placemark id="cobertura_la_punta.4">
	<Style><LineStyle><color>ff0000ff</color></LineStyle><PolyStyle><fill>0</fill></PolyStyle></Style>
	<ExtendedData><SchemaData schemaUrl="#cobertura_la_punta">
		<SimpleData name="nro_registro">3</SimpleData>
		<SimpleData name="ubicacion">Tovar y Moore</SimpleData>
	</SchemaData></ExtendedData>
      <Polygon><outerBoundaryIs><LinearRing><coordinates>-77.1595169972991,-12.0716575637274 -77.1595265251787,-12.0717456456317 -77.159553329991,-12.0718302056549 -77.1595963816544,-12.0719079941956 -77.1596540257244,-12.0719760218751 -77.159724046972,-12.0720316744194 -77.1598037545132,-12.0720728131249 -77.15989008522,-12.072097857049 -77.1599797214355,-12.0721058437657 -77.1600692184731,-12.0720964663515 -77.1601551369955,-12.0720700851796 -77.1602341751899,-12.0720277140708 -77.1603032956558,-12.0719709813316 -77.1603598421325,-12.071902067178 -77.160401641577,-12.0718236199497 -77.1604270876723,-12.0717386543348 -77.1604352025552,-12.0716504355165 -77.1604256743927,-12.0715623536928 -77.1603988693628,-12.0714777937944 -77.1603558175801,-12.0714000054036 -77.1602981735073,-12.0713319778762 -77.160228152374,-12.0712763254631 -77.1601484450465,-12.071235186848 -77.1600621146206,-12.0712101429597 -77.1599724787101,-12.0712021562186 -77.1598829819555,-12.0712115335521 -77.1597970636507,-12.0712379145992 -77.1597180255757,-12.0712802855581 -77.1596489051124,-12.0713370181452 -77.1595923585215,-12.0714059321676 -77.1595505588632,-12.0714843793055 -77.1595251124871,-12.0715693448846 -77.1595169972991,-12.0716575637274</coordinates></LinearRing></outerBoundaryIs></Polygon>
  </Placemark>
  <Placemark id="cobertura_la_punta.5">
	<Style><LineStyle><color>ff0000ff</color></LineStyle><PolyStyle><fill>0</fill></PolyStyle></Style>
	<ExtendedData><SchemaData schemaUrl="#cobertura_la_punta">
		<SimpleData name="nro_registro">4</SimpleData>
		<SimpleData name="ubicacion">Medina y Tarapaca</SimpleData>
	</SchemaData></ExtendedData>
      <Polygon><outerBoundaryIs><LinearRing><coordinates>-77.1632792942673,-12.0741102706465 -77.1632888235833,-12.0741983521826 -77.1633156298932,-12.0742829115858 -77.163358683058,-12.0743606992785 -77.1634163285756,-12.0744287259148 -77.1634863511611,-12.0744843772606 -77.1635660598793,-12.0745255146583 -77.1636523915568,-12.0745505572157 -77.1637420284996,-12.0745585425594 -77.1638315259929,-12.0745491638184 -77.1639174446821,-12.0745227814171 -77.1639964827477,-12.0744804092235 -77.1640656027946,-12.0744236755858 -77.1641221485778,-12.0743547607545 -77.1641639470811,-12.0742763130954 -77.1641893920238,-12.0741913473132 -77.1641975055868,-12.0741031285972 -77.1641879759878,-12.0740150471419 -77.1641611694602,-12.0739304878636 -77.1641181161762,-12.0738527003208 -77.164060470656,-12.0737846738367 -77.1639904481848,-12.0737290226222 -77.1639107396805,-12.0736878853148 -77.1638244082839,-12.073662842793 -77.1637347716463,-12.0736548574249 -77.163645274436,-12.0736642360851 -77.1635593559645,-12.0736906183615 -77.163480318018,-12.0737329904051 -77.1634111979738,-12.0737897238906 -77.1633546520763,-12.0738586385907 -77.163312853359,-12.0739370861595 -77.1632874081355,-12.0740220519061 -77.1632792942673,-12.0741102706465</coordinates></LinearRing></outerBoundaryIs></Polygon>
  </Placemark>
  <Placemark id="cobertura_la_punta.6">
	<Style><LineStyle><color>ff0000ff</color></LineStyle><PolyStyle><fill>0</fill></PolyStyle></Style>
	<ExtendedData><SchemaData schemaUrl="#cobertura_la_punta">
		<SimpleData name="nro_registro">5</SimpleData>
		<SimpleData name="ubicacion">Saenz Peña y Grau (MUNI)</SimpleData>
	</SchemaData></ExtendedData>
      <Polygon><outerBoundaryIs><LinearRing><coordinates>-77.162700196738,-12.0725558692388 -77.1627097257234,-12.0726439508457 -77.1627365316204,-12.072728510371 -77.162779584306,-12.0728062982325 -77.1628372292963,-12.0728743250778 -77.1629072513268,-12.0729299766647 -77.1629869594838,-12.0729711143265 -77.1630732906151,-12.0729961571607 -77.163162927048,-12.0730041427833 -77.1632524240871,-12.0729947643126 -77.1633383423954,-12.0729683821627 -77.1634173801681,-12.0729260101918 -77.163486500021,-12.0728692767396 -77.1635430457169,-12.0728003620494 -77.163584844243,-12.0727219144817 -77.1636102893173,-12.0726369487376 -77.1636184031161,-12.072548730005 -77.1636088738478,-12.0724606484789 -77.1635820677332,-12.0723760890785 -77.1635390149284,-12.0722983013669 -77.1634813699354,-12.0722302746738 -77.1634113480192,-12.0721746232181 -77.1633316400761,-12.0721334856466 -77.1632453092256,-12.072108442848 -77.1631556730979,-12.072100457201 -77.1630661763417,-12.0721098355909 -77.162980258251,-12.0721362176159 -77.1629012205976,-12.0721785894369 -77.1628321007473,-12.072235322737 -77.1627755549371,-12.0723042372959 -77.1627337561972,-12.0723826847733 -77.1627083108419,-12.0724676504818 -77.162700196738,-12.0725558692388</coordinates></LinearRing></outerBoundaryIs></Polygon>
  </Placemark>
  <Placemark id="cobertura_la_punta.7">
	<Style><LineStyle><color>ff0000ff</color></LineStyle><PolyStyle><fill>0</fill></PolyStyle></Style>
	<ExtendedData><SchemaData schemaUrl="#cobertura_la_punta">
		<SimpleData name="nro_registro">6</SimpleData>
		<SimpleData name="ubicacion">Grau (COMISARIA)</SimpleData>
	</SchemaData></ExtendedData>
      <Polygon><outerBoundaryIs><LinearRing><coordinates>-77.1572812030235,-12.067895958948 -77.1572907298358,-12.0679840410983 -77.1573175334016,-12.0680686015418 -77.1573605836876,-12.0681463906607 -77.157418226302,-12.0682144190545 -77.1574882460717,-12.0682700724213 -77.1575679521697,-12.0683112120261 -77.1576542815233,-12.0683362568918 -77.1577439165277,-12.0683442445563 -77.1578334125427,-12.0683348680593 -77.1579193302706,-12.0683084877391 -77.1579983679288,-12.0682661173836 -77.1580674881377,-12.0682093852703 -77.1581240346462,-12.0681404715913 -77.1581658344103,-12.0680620246681 -77.1581912811005,-12.0679770591769 -77.158199396831,-12.0678888402961 -77.1581898697359,-12.0678007582264 -77.1581630659524,-12.0677161979077 -77.1581200155472,-12.0676384089385 -77.15806237293,-12.0675703806969 -77.1579923532745,-12.0675147274612 -77.1579126473901,-12.0674735879467 -77.1578263183173,-12.0674485431168 -77.1577366836178,-12.067440555428 -77.1576471878856,-12.0674499318444 -77.1575612703754,-12.0674763120399 -77.1574822328364,-12.0675186822456 -77.1574131126304,-12.0675754142067 -77.1573565660077,-12.0676443277545 -77.1573147660299,-12.0677227745874 -77.1572893190589,-12.0678077400429 -77.1572812030235,-12.067895958948</coordinates></LinearRing></outerBoundaryIs></Polygon>
  </Placemark>
  <Placemark id="cobertura_la_punta.8">
	<Style><LineStyle><color>ff0000ff</color></LineStyle><PolyStyle><fill>0</fill></PolyStyle></Style>
	<ExtendedData><SchemaData schemaUrl="#cobertura_la_punta">
		<SimpleData name="nro_registro">7</SimpleData>
		<SimpleData name="ubicacion">Bolognesi y Galvez</SimpleData>
	</SchemaData></ExtendedData>
      <Polygon><outerBoundaryIs><LinearRing><coordinates>-77.1579650030277,-12.0680155601101 -77.1579745300705,-12.0681036421975 -77.158001333858,-12.0681882025358 -77.158044384348,-12.0682659915113 -77.1581020271411,-12.068334019729 -77.1581720470572,-12.0683896728938 -77.1582517532638,-12.0684308122784 -77.1583380826839,-12.0684558569142 -77.1584277177102,-12.0684638443479 -77.1585172137017,-12.0684544676282 -77.1586031313615,-12.0684280871018 -77.1586821689097,-12.0683857165646 -77.1587512889708,-12.0683289843012 -77.1588078352997,-12.0682600705093 -77.1588496348589,-12.0681816235146 -77.1588750813271,-12.0680966579964 -77.1588831968268,-12.0680084391339 -77.1588736695011,-12.0679203571272 -77.158846865496,-12.0678357969137 -77.1588038148868,-12.067758008088 -77.1587461720909,-12.0676899800224 -77.158676152289,-12.0676343269888 -77.1585964462961,-12.0675931876945 -77.1585101171568,-12.0675681430944 -77.1584204824354,-12.0675601556364 -77.1583309867267,-12.0675695322754 -77.1582450692845,-12.0675959126771 -77.1581660318556,-12.0676382830644 -77.1580969117972,-12.0676950151758 -77.1580403653542,-12.0677639288365 -77.1579985655813,-12.0678423757409 -77.1579731188323,-12.0679273412233 -77.1579650030277,-12.0680155601101</coordinates></LinearRing></outerBoundaryIs></Polygon>
  </Placemark>
  <Placemark id="cobertura_la_punta.9">
	<Style><LineStyle><color>ff0000ff</color></LineStyle><PolyStyle><fill>0</fill></PolyStyle></Style>
	<ExtendedData><SchemaData schemaUrl="#cobertura_la_punta">
		<SimpleData name="nro_registro">8</SimpleData>
		<SimpleData name="ubicacion">Malecon Figueredo y Ferre</SimpleData>
	</SchemaData></ExtendedData>
      <Polygon><outerBoundaryIs><LinearRing><coordinates>-77.1600199028186,-12.0685053636406 -77.1600294305665,-12.0685934455372 -77.1600562350401,-12.0686780055562 -77.1600992861708,-12.0687557940965 -77.1601569295345,-12.0688238217795 -77.1602269499293,-12.0688794743309 -77.1603066565041,-12.0689206130469 -77.1603929861679,-12.0689456569845 -77.1604826213042,-12.0689536437172 -77.1605721172674,-12.0689442663209 -77.1606580347619,-12.068917885168 -77.1607370720141,-12.0688755140787 -77.1608061916599,-12.0688187813587 -77.1608627374701,-12.0687498672233 -77.1609045364273,-12.0686714200114 -77.1609299822332,-12.0685864544107 -77.1609380970357,-12.0684982356034 -77.1609285690049,-12.0684101537876 -77.1609017643138,-12.0683255938933 -77.1608587130639,-12.0682478055029 -77.1608010696975,-12.068179777972 -77.1607310494169,-12.0681241255518 -77.1606513430558,-12.0680829869261 -77.1605650136727,-12.0680579430242 -77.1604753788415,-12.0680499562671 -77.1603858831612,-12.0680593335827 -77.1602999658843,-12.0680857146108 -77.1602209287513,-12.0681280855502 -77.1601518091081,-12.0681848181181 -77.1600952631837,-12.0682537321224 -77.1600534640127,-12.0683321792439 -77.1600280179261,-12.068417144809 -77.1600199028186,-12.0685053636406</coordinates></LinearRing></outerBoundaryIs></Polygon>
  </Placemark>
  <Placemark id="cobertura_la_punta.10">
	<Style><LineStyle><color>ff0000ff</color></LineStyle><PolyStyle><fill>0</fill></PolyStyle></Style>
	<ExtendedData><SchemaData schemaUrl="#cobertura_la_punta">
		<SimpleData name="nro_registro">9</SimpleData>
		<SimpleData name="ubicacion">Bolognesi c/6 (MERCADO)</SimpleData>
	</SchemaData></ExtendedData>
      <Polygon><outerBoundaryIs><LinearRing><coordinates>-77.160551601159,-12.0695752648284 -77.1605611291771,-12.0696633466643 -77.1605879339743,-12.0697479065794 -77.1606309854695,-12.0698256949764 -77.1606886292247,-12.0698937224824 -77.1607586500229,-12.0699493748297 -77.1608383569976,-12.0699905133224 -77.1609246870422,-12.0700155570261 -77.1610143225257,-12.0700235435234 -77.1611038187892,-12.070014165899 -77.1611897365255,-12.0699877845344 -77.1612687739517,-12.0699454132577 -77.1613378936972,-12.0698886803818 -77.1613944395287,-12.069819766128 -77.161436238428,-12.0697413188398 -77.1614616840992,-12.0696563532078 -77.1614697986953,-12.0695681344156 -77.1614602703943,-12.0694800526604 -77.1614334653795,-12.0693954928701 -77.1613904137651,-12.0693177046229 -77.1613327700072,-12.0692496772691 -77.1612627493233,-12.069194025053 -77.1611830425624,-12.0691528866506 -77.1610967127985,-12.0691278429826 -77.1610070776201,-12.0691198564609 -77.1609175816394,-12.0691292340045 -77.1608316641207,-12.0691556152443 -77.1607526268137,-12.0691979863712 -77.1606835070709,-12.069254719095 -77.1606269611252,-12.0693236332176 -77.1605851620121,-12.0694020804154 -77.1605597160601,-12.0694870460117 -77.160551601159,-12.0695752648284</coordinates></LinearRing></outerBoundaryIs></Polygon>
  </Placemark>
  <Placemark id="cobertura_la_punta.11">
	<Style><LineStyle><color>ff0000ff</color></LineStyle><PolyStyle><fill>0</fill></PolyStyle></Style>
	<ExtendedData><SchemaData schemaUrl="#cobertura_la_punta">
		<SimpleData name="nro_registro">10</SimpleData>
		<SimpleData name="ubicacion">Fanning y Arrieta</SimpleData>
	</SchemaData></ExtendedData>
      <Polygon><outerBoundaryIs><LinearRing><coordinates>-77.162884900721,-12.0702496688723 -77.162894429551,-12.0703377504899 -77.1629212351456,-12.0704223100397 -77.1629642873932,-12.0705000979384 -77.163021931827,-12.0705681248322 -77.1630919532037,-12.0706237764771 -77.1631716606347,-12.070664914204 -77.1632579909959,-12.0706899571081 -77.1633476266439,-12.0706979428026 -77.1634371229137,-12.0706885644031 -77.1635230404978,-12.0706621823208 -77.1636020776192,-12.0706198104115 -77.1636711969188,-12.0705630770125 -77.1637277421807,-12.070494162365 -77.1637695404085,-12.0704157148278 -77.163794985332,-12.0703307491009 -77.1638030991331,-12.0702425303716 -77.1637935700203,-12.0701544488348 -77.1637667642081,-12.0700698894099 -77.1637237118413,-12.0699921016611 -77.1636660674049,-12.0699240749194 -77.1635960461424,-12.0698684234057 -77.1635163389253,-12.0698272857691 -77.163430008845,-12.0698022429006 -77.163340373502,-12.0697942571817 -77.1632508775151,-12.0698036355004 -77.1631649601485,-12.0698300174578 -77.1630859231463,-12.0698723892172 -77.1630168038493,-12.0699291224641 -77.1629602584732,-12.0699980369804 -77.1629184600315,-12.0700764844273 -77.1628930148272,-12.0701614501186 -77.162884900721,-12.0702496688723</coordinates></LinearRing></outerBoundaryIs></Polygon>
  </Placemark>
  <Placemark id="cobertura_la_punta.12">
	<Style><LineStyle><color>ff0000ff</color></LineStyle><PolyStyle><fill>0</fill></PolyStyle></Style>
	<ExtendedData><SchemaData schemaUrl="#cobertura_la_punta">
		<SimpleData name="nro_registro">11</SimpleData>
		<SimpleData name="ubicacion">Figueredo y Saenz Peña</SimpleData>
	</SchemaData></ExtendedData>
      <Polygon><outerBoundaryIs><LinearRing><coordinates>-77.1648764005556,-12.0707031722886 -77.1648859300672,-12.0707912537213 -77.1649127363236,-12.0708758129619 -77.1649557891877,-12.0709536004391 -77.165013434169,-12.0710216268153 -77.1650834560032,-12.0710772778664 -77.1651631637842,-12.0711184149461 -77.1652494943742,-12.0711434571745 -77.1653391301213,-12.0711514421907 -77.1654286263566,-12.0711420631364 -77.1655145437738,-12.0711156804481 -77.1655935806024,-12.0710733080047 -77.1656626994946,-12.071016574164 -77.16571924425,-12.0709476591844 -77.1657610418919,-12.0708692114373 -77.1657864861725,-12.0707842456309 -77.1657945992983,-12.0706960269553 -77.1657850695039,-12.0706079456035 -77.16575826303,-12.0705233864878 -77.1657152100467,-12.0704455991605 -77.1656575650629,-12.0703775729364 -77.1655875433429,-12.0703219220166 -77.1655078357759,-12.0702807850271 -77.1654215054667,-12.0702557428343 -77.1653318700247,-12.0702477577936 -77.1652423740723,-12.070257136767 -77.1651564568726,-12.0702835193304 -77.1650774201632,-12.0703258916239 -77.1650083012736,-12.0703826253124 -77.1649517564038,-12.0704515401609 -77.164909958548,-12.0705299878177 -77.1648845139866,-12.0706149535886 -77.1648764005556,-12.0707031722886</coordinates></LinearRing></outerBoundaryIs></Polygon>
  </Placemark>
  <Placemark id="cobertura_la_punta.13">
	<Style><LineStyle><color>ff0000ff</color></LineStyle><PolyStyle><fill>0</fill></PolyStyle></Style>
	<ExtendedData><SchemaData schemaUrl="#cobertura_la_punta">
		<SimpleData name="nro_registro">12</SimpleData>
		<SimpleData name="ubicacion">Bolognesi y Malecon Pardo</SimpleData>
	</SchemaData></ExtendedData>
      <Polygon><outerBoundaryIs><LinearRing><coordinates>-77.1645680973117,-12.072553172319 -77.1645776268965,-12.0726412537574 -77.164604433348,-12.0727258130024 -77.1646474865216,-12.0728036004825 -77.1647051319149,-12.0728716268598 -77.1647751542477,-12.0729272779104 -77.1648548625947,-12.0729684149878 -77.1649411937966,-12.0729934572124 -77.1650308301777,-12.0730014422233 -77.1651203270447,-12.0729920631625 -77.1652062450673,-12.0729656804666 -77.1652852824515,-12.0729233080149 -77.1653544018283,-12.0728665741655 -77.1654109469786,-12.0727976591772 -77.1654527449106,-12.0727192114216 -77.1654781893652,-12.0726342456073 -77.1654863025423,-12.0725460269248 -77.1654767726746,-12.0724579455672 -77.1654499660055,-12.0723733864471 -77.1654069127126,-12.072295599117 -77.1653492673168,-12.0722275728918 -77.1652792450983,-12.0721719219725 -77.1651995369652,-12.0721307849853 -77.1651132060443,-12.0721057427964 -77.1650235699684,-12.072097757761 -77.1649340733842,-12.072107136741 -77.1648481555792,-12.072133519312 -77.1647691183142,-12.0721758916137 -77.16469999894,-12.0722326253109 -77.1646434536753,-12.072301540168 -77.1646016555295,-12.0723799878333 -77.164576210794,-12.072464953612 -77.1645680973117,-12.072553172319</coordinates></LinearRing></outerBoundaryIs></Polygon>
  </Placemark>
  <Placemark id="cobertura_la_punta.14">
	<Style><LineStyle><color>ff0000ff</color></LineStyle><PolyStyle><fill>0</fill></PolyStyle></Style>
	<ExtendedData><SchemaData schemaUrl="#cobertura_la_punta">
		<SimpleData name="nro_registro">13</SimpleData>
		<SimpleData name="ubicacion">Grau / Arrieta</SimpleData>
	</SchemaData></ExtendedData>
      <Polygon><outerBoundaryIs><LinearRing><coordinates>-77.1617300983408,-12.0714411673145 -77.1617396269109,-12.071529249022 -77.1617664323471,-12.0716138087181 -77.1618094845438,-12.0716915968139 -77.1618671290362,-12.0717596239481 -77.1619371505788,-12.0718152758672 -77.1620168582765,-12.0718564138919 -77.1621031889951,-12.0718814571057 -77.1621928250774,-12.0718894431101 -77.1622823218417,-12.0718800650086 -77.1623682399615,-12.0718536832011 -77.1624472776391,-12.0718113115327 -77.1625163974943,-12.0717545783314 -77.1625729432895,-12.0716856638311 -77.1626147420081,-12.0716072163847 -77.162640187361,-12.0715222506887 -77.1626483015134,-12.0714340319294 -77.1626387726604,-12.0713459503026 -77.1626119670066,-12.0712613907313 -77.1625689146906,-12.0711836027854 -77.1625112701956,-12.0711155758034 -77.1624412487672,-12.0710599240155 -77.1623615412834,-12.0710187860811 -77.1622752108457,-12.0709937429029 -77.1621855750684,-12.0709857568742 -77.162096078587,-12.0709951348949 -77.1620101606849,-12.0710215165776 -77.1619311231265,-12.0710638880961 -77.161862003274,-12.0711206211452 -77.1618054573644,-12.0711895355144 -77.161763658432,-12.0712679828704 -77.1617382127983,-12.0713529485307 -77.1617300983408,-12.0714411673145</coordinates></LinearRing></outerBoundaryIs></Polygon>
  </Placemark>
  <Placemark id="cobertura_la_punta.15">
	<Style><LineStyle><color>ff0000ff</color></LineStyle><PolyStyle><fill>0</fill></PolyStyle></Style>
	<ExtendedData><SchemaData schemaUrl="#cobertura_la_punta">
		<SimpleData name="nro_registro">14</SimpleData>
		<SimpleData name="ubicacion">Grau / Ferre</SimpleData>
	</SchemaData></ExtendedData>
      <Polygon><outerBoundaryIs><LinearRing><coordinates>-77.1588983005728,-12.0696242621163 -77.1589078280648,-12.0697123441006 -77.1589346323785,-12.0697969042625 -77.1589776834515,-12.0698746929954 -77.1590353268621,-12.0699427209134 -77.1591053474065,-12.069998373733 -77.1591850542279,-12.0700395127402 -77.1592713842258,-12.0700645569808 -77.1593610197706,-12.0700725440167 -77.1594505162015,-12.0700631669119 -77.1595364342045,-12.070036786028 -77.1596154719867,-12.0699944151746 -77.1596845921637,-12.0699376826483 -77.1597411384855,-12.0698687686571 -77.1597829379154,-12.0697903215343 -77.1598083841367,-12.0697053559641 -77.1598164992815,-12.0696171371277 -77.1598069715067,-12.0695290552241 -77.1597801669754,-12.0694444951869 -77.1597371157831,-12.0693667066039 -77.1596794723698,-12.069298678838 -77.1596094519396,-12.0692430261496 -77.1595297453319,-12.0692018872328 -77.1594434156148,-12.0691768430279 -77.159353780375,-12.0691688559676 -77.159264284227,-12.0691782329917 -77.1591783664416,-12.0692046137508 -77.1590993287787,-12.0692469844544 -77.1590302086045,-12.0693037168285 -77.1589736621684,-12.0693726306886 -77.1589318625248,-12.0694510777211 -77.1589064160227,-12.0695360432556 -77.1588983005728,-12.0696242621163</coordinates></LinearRing></outerBoundaryIs></Polygon>
  </Placemark>
  <Placemark id="cobertura_la_punta.16">
	<Style><LineStyle><color>ff0000ff</color></LineStyle><PolyStyle><fill>0</fill></PolyStyle></Style>
	<ExtendedData><SchemaData schemaUrl="#cobertura_la_punta">
		<SimpleData name="nro_registro">15</SimpleData>
		<SimpleData name="ubicacion">Tarapaca / Palacios</SimpleData>
	</SchemaData></ExtendedData>
      <Polygon><outerBoundaryIs><LinearRing><coordinates>-77.1588738993677,-12.0703277622804 -77.1588834269173,-12.0704158442585 -77.1589102313326,-12.0705004044082 -77.1589532825475,-12.0705781931233 -77.1590109261347,-12.0706462210185 -77.1590809468837,-12.0707018738113 -77.1591606539297,-12.0707430127887 -77.1592469841637,-12.0707680569976 -77.1593366199471,-12.0707760440012 -77.1594261166096,-12.0707666668647 -77.1595120348287,-12.0707402859509 -77.159591072803,-12.0706979150705 -77.1596601931406,-12.0706411825213 -77.1597167395855,-12.070572268512 -77.1597585390962,-12.0704938213767 -77.1597839853531,-12.0704088558 -77.1597921004867,-12.0703206369635 -77.1597825726543,-12.0702325550661 -77.1597557680213,-12.0701479950412 -77.1597127166871,-12.070070206476 -77.1596550730971,-12.0700021787329 -77.1595850524624,-12.0699465260713 -77.1595053456301,-12.0699053871842 -77.1594190156769,-12.069880343011 -77.1593293801986,-12.0698723559831 -77.1592398838189,-12.0698817330389 -77.1591539658175,-12.0699081138279 -77.1590749279625,-12.0699504845584 -77.1590058076276,-12.0700072169555 -77.1589492610684,-12.0700761308337 -77.158907461344,-12.0701545778786 -77.1588820148064,-12.0702395434195 -77.1588738993677,-12.0703277622804</coordinates></LinearRing></outerBoundaryIs></Polygon>
  </Placemark>
  <Placemark id="cobertura_la_punta.17">
	<Style><LineStyle><color>ff0000ff</color></LineStyle><PolyStyle><fill>0</fill></PolyStyle></Style>
	<ExtendedData><SchemaData schemaUrl="#cobertura_la_punta">
		<SimpleData name="nro_registro">16</SimpleData>
		<SimpleData name="ubicacion">Malecon Wiesse / Elias Aguirre</SimpleData>
	</SchemaData></ExtendedData>
      <Polygon><outerBoundaryIs><LinearRing><coordinates>-77.1582909012064,-12.0691436609751 -77.1583004284587,-12.0692317430198 -77.1583272325175,-12.0693163032836 -77.1583702833304,-12.0693940921561 -77.1584279264856,-12.0694621202459 -77.1584979467889,-12.069517773263 -77.158577653393,-12.0695589124857 -77.1586639832057,-12.0695839569516 -77.1587536186045,-12.0695919442139 -77.1588431149342,-12.069582567328 -77.1589290328847,-12.069556186647 -77.1590080706652,-12.0695138159726 -77.1590771908911,-12.0694570835948 -77.1591337373109,-12.0693881697156 -77.1591755368838,-12.0693097226641 -77.1592009832879,-12.0692247571219 -77.159209098648,-12.0691365382689 -77.1591995711129,-12.0690484563049 -77.1591727668364,-12.0689638961658 -77.1591297159042,-12.0688861074432 -77.1590720727464,-12.0688180795055 -77.1590020525572,-12.0687624266196 -77.1589223461668,-12.0687212874872 -77.1588360166349,-12.068696243057 -77.1587463815411,-12.0686882557704 -77.1586568854943,-12.0686976325756 -77.1585709677613,-12.0687240131319 -77.1584919301002,-12.0687663836564 -77.158422809877,-12.0688231158821 -77.158366263343,-12.0688920296302 -77.1583244635564,-12.0689704765913 -77.1582990168716,-12.0690554420978 -77.1582909012064,-12.0691436609751</coordinates></LinearRing></outerBoundaryIs></Polygon>
  </Placemark>
  <Placemark id="cobertura_la_punta.18">
	<Style><LineStyle><color>ff0000ff</color></LineStyle><PolyStyle><fill>0</fill></PolyStyle></Style>
	<ExtendedData><SchemaData schemaUrl="#cobertura_la_punta">
		<SimpleData name="nro_registro">17</SimpleData>
		<SimpleData name="ubicacion">Fanning / Medina</SimpleData>
	</SchemaData></ExtendedData>
      <Polygon><outerBoundaryIs><LinearRing><coordinates>-77.1646291988439,-12.0716642721609 -77.1646387283656,-12.0717523536044 -77.1646655346975,-12.0718369128603 -77.1647085876996,-12.0719147003568 -77.1647662328761,-12.0719827267554 -77.1648362549553,-12.0720383778312 -77.1649159630214,-12.072079514937 -77.1650022939259,-12.0721045571918 -77.1650919300048,-12.0721125422337 -77.1651814265762,-12.0721031632036 -77.1652673443212,-12.0720767805367 -77.1653463814565,-12.0720344081115 -77.1654155006226,-12.0719776742848 -77.1654720456086,-12.0719087593145 -77.1655138434288,-12.0718303115718 -77.1655392878286,-12.0717453457645 -77.1655474010101,-12.071657127083 -77.1655378712055,-12.0715690457203 -77.1655110646561,-12.0714844865893 -77.1654680115347,-12.0714066992427 -77.1654103663556,-12.0713386729963 -77.1653403443908,-12.0712830220517 -77.1652606365386,-12.0712418850362 -77.165174305915,-12.071216842817 -77.1650846701413,-12.0712088577505 -77.1649951738527,-12.0712182366999 -77.1649092563253,-12.0712446192418 -77.1648302193091,-12.0712869915171 -77.1647611001456,-12.0713437251917 -77.1647045550453,-12.0714126400307 -77.1646627570112,-12.0714910876832 -77.1646373123305,-12.0715760534549 -77.1646291988439,-12.0716642721609</coordinates></LinearRing></outerBoundaryIs></Polygon>
  </Placemark>
  <Placemark id="cobertura_la_punta.19">
	<Style><LineStyle><color>ff0000ff</color></LineStyle><PolyStyle><fill>0</fill></PolyStyle></Style>
	<ExtendedData><SchemaData schemaUrl="#cobertura_la_punta">
		<SimpleData name="nro_registro">18</SimpleData>
		<SimpleData name="ubicacion">Skate Park</SimpleData>
	</SchemaData></ExtendedData>
      <Polygon><outerBoundaryIs><LinearRing><coordinates>-77.1656606970383,-12.0729092742249 -77.1656702270072,-12.0729973555605 -77.1656970338384,-12.0730819146334 -77.165740087373,-12.0731597018787 -77.1657977330944,-12.0732277279676 -77.1658677557102,-12.0732833786871 -77.1659474642838,-12.0733245154037 -77.1660337956474,-12.0733495572514 -77.1661234321191,-12.0733575418839 -77.1662129290022,-12.0733481624578 -77.1662988469656,-12.0733217794236 -77.1663778842177,-12.0732794066738 -77.1664470033944,-12.0732226725778 -77.1665035482845,-12.0731537574039 -77.166545345906,-12.0730753095309 -77.1665707900119,-12.0729903436718 -77.1665789028156,-12.0729021250188 -77.1665693725638,-12.0728140437641 -77.166542565515,-12.0727294848162 -77.1664995118612,-12.0726516977209 -77.1664418661372,-12.0725836717841 -77.1663718436359,-12.0725280211958 -77.1662921352762,-12.0724868845695 -77.1662058041935,-12.0724618427574 -77.166116168027,-12.0724538581003 -77.1660266714268,-12.0724632374456 -77.165940753681,-12.0724896203548 -77.1658617165481,-12.0725319929547 -77.1657925973739,-12.0725887268985 -77.1657360523695,-12.0726576419413 -77.165694254534,-12.072736089724 -77.1656688101471,-12.0728210555475 -77.1656606970383,-12.0729092742249</coordinates></LinearRing></outerBoundaryIs></Polygon>
  </Placemark>
  <Placemark id="cobertura_la_punta.20">
	<Style><LineStyle><color>ff0000ff</color></LineStyle><PolyStyle><fill>0</fill></PolyStyle></Style>
	<ExtendedData><SchemaData schemaUrl="#cobertura_la_punta">
		<SimpleData name="nro_registro">19</SimpleData>
		<SimpleData name="ubicacion">Tarapaca / Garcia y Garcia</SimpleData>
	</SchemaData></ExtendedData>
      <Polygon><outerBoundaryIs><LinearRing><coordinates>-77.1601055975988,-12.0715866646775 -77.1601151256608,-12.0716747465297 -77.160141930637,-12.0717593064662 -77.1601849824394,-12.071837094889 -77.1602426266183,-12.0719051224241 -77.1603126479404,-12.0719607748027 -77.160392355519,-12.0720019133279 -77.1604786862244,-12.0720269570638 -77.1605683224,-12.0720349435918 -77.1606578193605,-12.0720255659955 -77.1607437377719,-12.0719991846553 -77.1608227758253,-12.0719568133983 -77.1608918961259,-12.0719000805367 -77.1609484424191,-12.0718311662913 -77.1609902416692,-12.0717527190053 -77.1610156875665,-12.071667753369 -77.1610238022555,-12.0715795345663 -77.1610142739106,-12.0714914527948 -77.1609874687168,-12.0714068929831 -77.160944416795,-12.0713291047102 -77.1608867726134,-12.0712610773273 -77.1608167514056,-12.0712054250798 -77.1607370440408,-12.0711642866451 -77.1606507136162,-12.0711392429448 -77.1605610777457,-12.0711312563924 -77.1604715810681,-12.071140633908 -77.1603856628744,-12.0711670151234 -77.1603066249403,-12.0712093862306 -77.1602375046424,-12.07126611894 -77.1601809582349,-12.0713350330542 -77.160139158771,-12.0714134802499 -77.1601137125929,-12.0714984458505 -77.1601055975988,-12.0715866646775</coordinates></LinearRing></outerBoundaryIs></Polygon>
  </Placemark>
  <Placemark id="cobertura_la_punta.21">
	<Style><LineStyle><color>ff0000ff</color></LineStyle><PolyStyle><fill>0</fill></PolyStyle></Style>
	<ExtendedData><SchemaData schemaUrl="#cobertura_la_punta">
		<SimpleData name="nro_registro">20</SimpleData>
		<SimpleData name="ubicacion">Malecon Figueredo / Garcia y Garcia</SimpleData>
	</SchemaData></ExtendedData>
      <Polygon><outerBoundaryIs><LinearRing><coordinates>-77.1621111022975,-12.0691852672866 -77.16212063078,-12.0692733489866 -77.1621474359799,-12.0693579086766 -77.1621904878008,-12.0694356967679 -77.1622481317921,-12.0695037238992 -77.1623181527277,-12.0695593758175 -77.1623978597359,-12.0696005138432 -77.1624841897088,-12.0696255570599 -77.162573825018,-12.0696335430689 -77.1626633210115,-12.0696241649737 -77.1627492383924,-12.0695977831738 -77.1628282753915,-12.069555411514 -77.1628973946545,-12.0694986783222 -77.1629539399666,-12.0694297638315 -77.1629957383299,-12.0693513163948 -77.1630211834687,-12.0692663507082 -77.1630292975567,-12.0691781319574 -77.1630197687913,-12.0690900503381 -77.1629929633739,-12.069005490773 -77.1629499114338,-12.0689277028316 -77.1628922674398,-12.0688596758524 -77.1628222466185,-12.0688040240653 -77.1627425398241,-12.0687628861299 -77.162656210132,-12.0687378429488 -77.1625665751278,-12.0687298569153 -77.1624770794171,-12.0687392349298 -77.1623911622538,-12.0687656166049 -77.1623121253739,-12.0688079881148 -77.1622430061136,-12.0688647211545 -77.1621864606872,-12.068933635514 -77.1621446621101,-12.0690120828604 -77.1621192166905,-12.0690970485113 -77.1621111022975,-12.0691852672866</coordinates></LinearRing></outerBoundaryIs></Polygon>
  </Placemark>
  <Placemark id="cobertura_la_punta.22">
	<Style><LineStyle><color>ff0000ff</color></LineStyle><PolyStyle><fill>0</fill></PolyStyle></Style>
	<ExtendedData><SchemaData schemaUrl="#cobertura_la_punta">
		<SimpleData name="nro_registro">21</SimpleData>
		<SimpleData name="ubicacion">Bolognesi / Larco</SimpleData>
	</SchemaData></ExtendedData>
      <Polygon><outerBoundaryIs><LinearRing><coordinates>-77.1625431989835,-12.071209068588 -77.1625527277931,-12.071297150225 -77.1625795334348,-12.0713817098043 -77.1626225857953,-12.0714594977417 -77.1626802304034,-12.0715275246816 -77.1627502520091,-12.0715831763784 -77.162829959715,-12.0716243141611 -77.1629162903864,-12.0716493571226 -77.1630059263681,-12.0716573428739 -77.1630954229823,-12.0716479645285 -77.163181340908,-12.0716215824956 -77.1632603783553,-12.0715792106288 -77.1633294979525,-12.071522477264 -77.1633860434722,-12.071453562641 -77.1634278419082,-12.0713751151178 -77.1634532869824,-12.0712901493937 -77.1634614008706,-12.0712019306559 -77.1634518717782,-12.0711138490997 -77.1634250659188,-12.0710292896452 -77.1633820134391,-12.0709515018578 -77.1633243688284,-12.0708834750699 -77.163254347337,-12.0708278235043 -77.1631746398449,-12.0707866858119 -77.1630883094544,-12.0707616428861 -77.1629986737777,-12.0707536571103 -77.1629091774465,-12.070763035375 -77.1628232597384,-12.0707894172831 -77.1627442224103,-12.0708317889999 -77.1626751028157,-12.0708885222126 -77.1626185571817,-12.0709574367044 -77.1625767585318,-12.0710358841373 -77.1625513131768,-12.0711208498258 -77.1625431989835,-12.071209068588</coordinates></LinearRing></outerBoundaryIs></Polygon>
  </Placemark>
  <Placemark id="cobertura_la_punta.23">
	<Style><LineStyle><color>ff0000ff</color></LineStyle><PolyStyle><fill>0</fill></PolyStyle></Style>
	<ExtendedData><SchemaData schemaUrl="#cobertura_la_punta">
		<SimpleData name="nro_registro">22</SimpleData>
		<SimpleData name="ubicacion">Torre La Merced / Malecon Figueredo</SimpleData>
	</SchemaData></ExtendedData>
      <Polygon><outerBoundaryIs><LinearRing><coordinates>-77.1584639044737,-12.0672550607118 -77.158473431606,-12.0673431427634 -77.158500235424,-12.067427703044 -77.1585432858842,-12.0675054919424 -77.1586009285885,-12.0675735200663 -77.1586709483603,-12.0676291731245 -77.1587506543724,-12.0676703123936 -77.1588369835554,-12.0676953569094 -77.1589266183112,-12.0677033442233 -77.159016114009,-12.0676939673886 -77.1591020313633,-12.0676675867564 -77.1591810686059,-12.0676252161267 -77.1592501883732,-12.0675684837876 -77.1593067344311,-12.0674995699397 -77.1593485337528,-12.067421122911 -77.159373980026,-12.067336157382 -77.1593820953807,-12.0672479385323 -77.1593725679656,-12.0671598565614 -77.1593457639301,-12.0670752964055 -77.1593027133506,-12.0669975076569 -77.1592450706435,-12.0669294796851 -77.1591750509859,-12.0668738267581 -77.1590953451875,-12.0668326875793 -77.1590090162852,-12.0668076430992 -77.1589193818344,-12.066799655761 -77.1588298864194,-12.066809032515 -77.1587439692827,-12.0668354130224 -77.1586649321593,-12.0668777835023 -77.1585958123947,-12.0669345156893 -77.1585392662226,-12.0670034294061 -77.1584974666872,-12.0670818763444 -77.1584720201333,-12.0671668418378 -77.1584639044737,-12.0672550607118</coordinates></LinearRing></outerBoundaryIs></Polygon>
  </Placemark>
  <Placemark id="cobertura_la_punta.24">
	<Style><LineStyle><color>ff0000ff</color></LineStyle><PolyStyle><fill>0</fill></PolyStyle></Style>
	<ExtendedData><SchemaData schemaUrl="#cobertura_la_punta">
		<SimpleData name="nro_registro">23</SimpleData>
		<SimpleData name="ubicacion">Grau / Malecon Pardo</SimpleData>
	</SchemaData></ExtendedData>
      <Polygon><outerBoundaryIs><LinearRing><coordinates>-77.1640318960196,-12.0732159716276 -77.164041425494,-12.0733040531065 -77.1640682318889,-12.0733886124169 -77.164111285062,-12.073466399985 -77.1641689305109,-12.0735344264695 -77.1642389529533,-12.0735900776421 -77.1643186614596,-12.073631214852 -77.1644049928644,-12.0736562572142 -77.1644946294842,-12.0736642423627 -77.1645841266167,-12.0736548634341 -77.1646700449211,-12.0736284808599 -77.1647490825928,-12.0735861085149 -77.1648182022517,-12.073529374753 -77.1648747476678,-12.0734604598295 -77.1649165458389,-12.0733820121137 -77.1649419904972,-12.0732970463126 -77.1649501038344,-12.0732088276162 -77.1649405740771,-12.0731207462181 -77.1649137674645,-12.0730361870325 -77.1648707141722,-12.0729583996144 -77.1648130687207,-12.0728903732821 -77.1647430463927,-12.0728347222407 -77.1646633381003,-12.0727935851211 -77.1645770069764,-12.0727685427946 -77.1644873706618,-12.0727605576216 -77.1643978738122,-12.0727699364694 -77.1643119557254,-12.0727963189186 -77.1642329181729,-12.0728386911137 -77.1641637985167,-12.0728954247235 -77.1641072529862,-12.0729643395157 -77.1640654546011,-12.0730427871412 -77.164040009662,-12.0731277529067 -77.1640318960196,-12.0732159716276</coordinates></LinearRing></outerBoundaryIs></Polygon>
  </Placemark>
  <Placemark id="cobertura_la_punta.25">
	<Style><LineStyle><color>ff0000ff</color></LineStyle><PolyStyle><fill>0</fill></PolyStyle></Style>
	<ExtendedData><SchemaData schemaUrl="#cobertura_la_punta">
		<SimpleData name="nro_registro">24</SimpleData>
		<SimpleData name="ubicacion">Tovar / Saenz Peña</SimpleData>
	</SchemaData></ExtendedData>
      <Polygon><outerBoundaryIs><LinearRing><coordinates>-77.1622397944171,-12.073836468852 -77.1622493233737,-12.0739245504851 -77.1622761293324,-12.0740091100505 -77.1623191821675,-12.0740868979645 -77.1623768273896,-12.0741549248725 -77.1624468497251,-12.07421057653 -77.1625265582487,-12.0742517142676 -77.1626128897941,-12.0742767571799 -77.1627025266725,-12.0742847428798 -77.1627920241717,-12.0742753644828 -77.1628779429368,-12.0742489823999 -77.1629569811454,-12.074206610487 -77.1630261013968,-12.0741498770813 -77.1630826474382,-12.0740809624246 -77.1631244462436,-12.0740025148759 -77.1631498915205,-12.0739175491357 -77.1631580054371,-12.0738293303917 -77.1631484761975,-12.0737412488394 -77.1631216700211,-12.0736566893988 -77.1630786170667,-12.0735789016348 -77.163020971842,-12.073510874879 -77.1629509496208,-12.0734552233527 -77.1628712413111,-12.0734140857054 -77.1627849100466,-12.0733890428288 -77.1626952734733,-12.0733810571045 -77.1626057762571,-12.0733904354207 -77.1625198577097,-12.0734168173787 -77.1624408196203,-12.0734591891418 -77.1623716993716,-12.0735159223952 -77.1623151532158,-12.0735848369207 -77.1622733541966,-12.0736632843791 -77.1622479086388,-12.0737482500836 -77.1622397944171,-12.073836468852</coordinates></LinearRing></outerBoundaryIs></Polygon>
  </Placemark>
</Folder>
</Document></kml>
